[{"OBJECT_NAME":"NEXTSAT-2","OBJECT_ID":"2023-072A","EPOCH":"2026-03-09T23:10:55.073280","MEAN_MOTION":15.26393087,"ECCENTRICITY":0.00062633,"INCLINATION":97.5306,"RA_OF_ASC_NODE":265.1019,"ARG_OF_PERICENTER":22.4193,"MEAN_ANOMALY":337.7318,"EPHEMERIS_TYPE":0,"CLASSIFICATION_TYPE":"U","NORAD_CAT_ID":56743,"ELEMENT_SET_NO":999,"REV_AT_EPOCH":15445,"BSTAR":0.00056400163,"MEAN_MOTION_DOT":0.00014622,"MEAN_MOTION_DDOT":0},{"OBJECT_NAME":"STARLINK-30798","OBJECT_ID":"2023-167X","EPOCH":"2026-03-09T13:31:29.000640","MEAN_MOTION":15.27577174,"ECCENTRICITY":0.0002809,"INCLINATION":43.0038,"RA_OF_ASC_NODE":144.2954,"ARG_OF_PERICENTER":265.2995,"MEAN_ANOMALY":94.7536,"EPHEMERIS_TYPE":0,"CLASSIFICATION_TYPE":"U","NORAD_CAT_ID":58196,"ELEMENT_SET_NO":999,"REV_AT_EPOCH":13096,"BSTAR":0.00024589,"MEAN_MOTION_DOT":6.51e-5,"MEAN_MOTION_DDOT":0}]
